{
  "type": "FeatureCollection",
  "features": [
    {
      "type": "Feature",
      "properties": {
        "norad_id": 66582,
        "name": "STARLINK-35746",
        "group": "last-30-days",
        "lat": 42.88195720488685,
        "lon": 166.4920813161841,
        "alt_km": 392.58874968033615,
        "timestamp": "2025-12-21T03:56:49.614185+00:00",
        "meta_object_name": "STARLINK-35746",
        "meta_object_id": "2025-268AB",
        "meta_epoch": "2025-12-20T20:00:01.999008",
        "meta_mean_motion": 15.56498118,
        "meta_eccentricity": 0.0001848,
        "meta_inclination": 43.0004,
        "meta_ra_of_asc_node": 73.7062,
        "meta_arg_of_pericenter": 274.9531,
        "meta_mean_anomaly": 121.0282,
        "meta_ephemeris_type": 0,
        "meta_classification_type": "U",
        "meta_norad_cat_id": 66582,
        "meta_element_set_no": 999,
        "meta_rev_at_epoch": 596,
        "meta_bstar": -0.002496,
        "meta_mean_motion_dot": -0.00178033,
        "meta_mean_motion_ddot": 0,
        "tle_line1": "1 66582U 25268AB  25354.83335647 -.00178033  00000+0 -24960-2 0  9994",
        "tle_line2": "2 66582  43.0004  73.7062 0001848 274.9531 121.0282 15.56498118  5961"
      },
      "geometry": {
        "type": "Point",
        "coordinates": [
          166.4920813161841,
          42.88195720488685
        ]
      }
    },
    {
      "type": "Feature",
      "properties": {
        "norad_id": 66583,
        "name": "STARLINK-35941",
        "group": "last-30-days",
        "lat": 41.57903938698279,
        "lon": 143.97480362455167,
        "alt_km": 397.2389047151619,
        "timestamp": "2025-12-21T03:56:49.614194+00:00",
        "meta_object_name": "STARLINK-35941",
        "meta_object_id": "2025-268AC",
        "meta_epoch": "2025-12-20T05:59:10.873824",
        "meta_mean_motion": 15.5129279,
        "meta_eccentricity": 0.0012733,
        "meta_inclination": 43.0013,
        "meta_ra_of_asc_node": 77.1533,
        "meta_arg_of_pericenter": 76.6546,
        "meta_mean_anomaly": 283.5733,
        "meta_ephemeris_type": 0,
        "meta_classification_type": "U",
        "meta_norad_cat_id": 66583,
        "meta_element_set_no": 999,
        "meta_rev_at_epoch": 579,
        "meta_bstar": 0.0016923,
        "meta_mean_motion_dot": 0.00103155,
        "meta_mean_motion_ddot": 0,
        "tle_line1": "1 66583U 25268AC  25354.24943141  .00103155  00000+0  16923-2 0  9995",
        "tle_line2": "2 66583  43.0013  77.1533 0012733  76.6546 283.5733 15.51292790  5790"
      },
      "geometry": {
        "type": "Point",
        "coordinates": [
          143.97480362455167,
          41.57903938698279
        ]
      }
    },
    {
      "type": "Feature",
      "properties": {
        "norad_id": 66584,
        "name": "STARLINK-35939",
        "group": "last-30-days",
        "lat": 41.44355171711855,
        "lon": 143.15646451579937,
        "alt_km": 408.1851444154181,
        "timestamp": "2025-12-21T03:56:49.614203+00:00",
        "meta_object_name": "STARLINK-35939",
        "meta_object_id": "2025-268AD",
        "meta_epoch": "2025-12-19T14:31:27.869088",
        "meta_mean_motion": 15.50751867,
        "meta_eccentricity": 0.0002615,
        "meta_inclination": 42.9992,
        "meta_ra_of_asc_node": 80.9182,
        "meta_arg_of_pericenter": 187.8218,
        "meta_mean_anomaly": 172.2602,
        "meta_ephemeris_type": 0,
        "meta_classification_type": "U",
        "meta_norad_cat_id": 66584,
        "meta_element_set_no": 999,
        "meta_rev_at_epoch": 569,
        "meta_bstar": 0.0012867,
        "meta_mean_motion_dot": 0.00076356,
        "meta_mean_motion_ddot": 0,
        "tle_line1": "1 66584U 25268AD  25353.60518367  .00076356  00000+0  12867-2 0  9998",
        "tle_line2": "2 66584  42.9992  80.9182 0002615 187.8218 172.2602 15.50751867  5698"
      },
      "geometry": {
        "type": "Point",
        "coordinates": [
          143.15646451579937,
          41.44355171711855
        ]
      }
    },
    {
      "type": "Feature",
      "properties": {
        "norad_id": 66585,
        "name": "STARLINK-35963",
        "group": "last-30-days",
        "lat": 42.312810765994854,
        "lon": 174.07093882887338,
        "alt_km": 392.50683693071096,
        "timestamp": "2025-12-21T03:56:49.614213+00:00",
        "meta_object_name": "STARLINK-35963",
        "meta_object_id": "2025-268AE",
        "meta_epoch": "2025-12-20T20:00:01.999008",
        "meta_mean_motion": 15.56310562,
        "meta_eccentricity": 0.0001959,
        "meta_inclination": 42.9999,
        "meta_ra_of_asc_node": 73.6925,
        "meta_arg_of_pericenter": 255.3735,
        "meta_mean_anomaly": 146.3086,
        "meta_ephemeris_type": 0,
        "meta_classification_type": "U",
        "meta_norad_cat_id": 66585,
        "meta_element_set_no": 999,
        "meta_rev_at_epoch": 596,
        "meta_bstar": 0.0024215,
        "meta_mean_motion_dot": 0.00178633,
        "meta_mean_motion_ddot": 0,
        "tle_line1": "1 66585U 25268AE  25354.83335647  .00178633  00000+0  24215-2 0  9994",
        "tle_line2": "2 66585  42.9999  73.6925 0001959 255.3735 146.3086 15.56310562  5962"
      },
      "geometry": {
        "type": "Point",
        "coordinates": [
          174.07093882887338,
          42.312810765994854
        ]
      }
    },
    {
      "type": "Feature",
      "properties": {
        "norad_id": 66586,
        "name": "TJS-21",
        "group": "last-30-days",
        "lat": -39.089436671466544,
        "lon": 5.6145479247047305,
        "alt_km": 3247.775851004154,
        "timestamp": "2025-12-21T03:56:49.614224+00:00",
        "meta_object_name": "TJS-21",
        "meta_object_id": "2025-269A",
        "meta_epoch": "2025-12-18T16:58:10.473888",
        "meta_mean_motion": 2.00580748,
        "meta_eccentricity": 0.6806869,
        "meta_inclination": 63.2733,
        "meta_ra_of_asc_node": 161.7218,
        "meta_arg_of_pericenter": 269.7428,
        "meta_mean_anomaly": 18.6663,
        "meta_ephemeris_type": 0,
        "meta_classification_type": "U",
        "meta_norad_cat_id": 66586,
        "meta_element_set_no": 999,
        "meta_rev_at_epoch": 55,
        "meta_bstar": -0.059507049,
        "meta_mean_motion_dot": 1.084e-05,
        "meta_mean_motion_ddot": 0,
        "tle_line1": "1 66586U 25269A   25352.70706567  .00001084  00000+0 -59507-1 0  9990",
        "tle_line2": "2 66586  63.2733 161.7218 6806869 269.7428  18.6663  2.00580748   558"
      },
      "geometry": {
        "type": "Point",
        "coordinates": [
          5.6145479247047305,
          -39.089436671466544
        ]
      }
    },
    {
      "type": "Feature",
      "properties": {
        "norad_id": 66587,
        "name": "CZ-3B R/B",
        "group": "last-30-days",
        "lat": 16.106794959944594,
        "lon": -179.02367657559927,
        "alt_km": 26671.723310919155,
        "timestamp": "2025-12-21T03:56:49.614237+00:00",
        "meta_object_name": "CZ-3B R/B",
        "meta_object_id": "2025-269B",
        "meta_epoch": "2025-12-18T04:21:45.908640",
        "meta_mean_motion": 2.0405465,
        "meta_eccentricity": 0.75166459,
        "meta_inclination": 51.3412,
        "meta_ra_of_asc_node": 168.3764,
        "meta_arg_of_pericenter": 229.6756,
        "meta_mean_anomaly": 36.1575,
        "meta_ephemeris_type": 0,
        "meta_classification_type": "U",
        "meta_norad_cat_id": 66587,
        "meta_element_set_no": 999,
        "meta_rev_at_epoch": 56,
        "meta_bstar": 0.00058948144,
        "meta_mean_motion_dot": 0.0008861,
        "meta_mean_motion_ddot": -1.447425e-06,
        "tle_line1": "1 66587U 25269B   25352.18178135  .00088610 -14474-5  58948-3 0  9993",
        "tle_line2": "2 66587  51.3412 168.3764 7516645 229.6756  36.1575  2.04054650   560"
      },
      "geometry": {
        "type": "Point",
        "coordinates": [
          -179.02367657559927,
          16.106794959944594
        ]
      }
    },
    {
      "type": "Feature",
      "properties": {
        "norad_id": 66588,
        "name": "STARLINK-36076",
        "group": "last-30-days",
        "lat": -3.0453742293354256,
        "lon": 140.9606280081175,
        "alt_km": 444.0654630591134,
        "timestamp": "2025-12-21T03:56:49.614248+00:00",
        "meta_object_name": "STARLINK-36076",
        "meta_object_id": "2025-270A",
        "meta_epoch": "2025-12-20T18:37:52.440960",
        "meta_mean_motion": 15.40705129,
        "meta_eccentricity": 0.0002289,
        "meta_inclination": 42.9999,
        "meta_ra_of_asc_node": 146.471,
        "meta_arg_of_pericenter": 264.7414,
        "meta_mean_anomaly": 95.3181,
        "meta_ephemeris_type": 0,
        "meta_classification_type": "U",
        "meta_norad_cat_id": 66588,
        "meta_element_set_no": 999,
        "meta_rev_at_epoch": 558,
        "meta_bstar": 0.00080389,
        "meta_mean_motion_dot": 0.00033431,
        "meta_mean_motion_ddot": 0,
        "tle_line1": "1 66588U 25270A   25354.77630140  .00033431  00000+0  80389-3 0  9990",
        "tle_line2": "2 66588  42.9999 146.4710 0002289 264.7414  95.3181 15.40705129  5588"
      },
      "geometry": {
        "type": "Point",
        "coordinates": [
          140.9606280081175,
          -3.0453742293354256
        ]
      }
    }
  ]
}